2026-134A               
1 69538U 26134A   26191.59125477  .00003190  00000+0  20302-3 0  9998
2 69538  97.7009 261.7871 0015715 186.0657 174.0384 15.09436333  3848
2026-134B               
1 69539U 26134B   26191.58861789  .00003104  00000+0  19681-3 0  9994
2 69539  97.6985 261.7828 0015790 188.4087 171.6879 15.09592955  3833
2026-134C               
1 69540U 26134C   26191.58808476  .00003134  00000+0  19848-3 0  9998
2 69540  97.6990 261.7853 0015204 189.5408 170.5535 15.09625263  3834
2026-134D               
1 69541U 26134D   26192.05108402  .00002757  00000+0  17481-3 0  9995
2 69541  97.7028 262.2651 0016303 187.6800 172.4181 15.09685314  3905
2026-134E               
1 69542U 26134E   26192.05070777  .00002935  00000+0  18571-3 0  9998
2 69542  97.7046 262.2717 0016033 188.4106 171.6856 15.09707529  3900
2026-134F               
1 69543U 26134F   26192.04992271  .00002887  00000+0  18255-3 0  9995
2 69543  97.7000 262.2575 0015300 190.0079 170.0848 15.09752911  3906
2026-134G               
1 69544U 26134G   26192.18103075  .00002583  00000+0  16339-3 0  9991
2 69544  97.7044 262.4069 0015796 190.4511 169.6391 15.09837886  3923
2026-134H               
1 69545U 26134H   26192.04735072  .00002876  00000+0  18109-3 0  9997
2 69545  97.7029 262.2705 0015624 192.3067 167.7782 15.09904401  3896
STARLINK-37880          
1 69546U 26135A   26192.16668980 -.03258069  00000+0 -62847-1 0  9993
2 69546  97.2846 220.4240 0001738  57.5355 132.1013 15.51584885  5164
STARLINK-37881          
1 69547U 26135B   26192.16668980 -.02390094  00000+0 -32221-1 0  9991
2 69547  97.2846 220.4990 0000982  90.2197 270.4689 15.61245091  5164
STARLINK-37265          
1 69548U 26135C   26192.16668980 -.02665105  00000+0 -25454-1 0  9990
2 69548  97.2843 220.5368 0001771  68.9378  30.6166 15.70194609  5166
STARLINK-37871          
1 69549U 26135D   26192.16668980 -.02573762  00000+0 -38049-1 0  9992
2 69549  97.2842 220.4896 0001111 107.6446 239.5634 15.59137149  5169
STARLINK-37865          
1 69550U 26135E   26192.16668980 -.02596929  00000+0 -36666-1 0  9997
2 69550  97.2840 220.4984 0001153  85.6717 283.4418 15.60372734  5160
STARLINK-37862          
1 69551U 26135F   26192.16668980 -.02248869  00000+0 -25188-1 0  9992
2 69551  97.2841 220.5288 0001454  47.4655  29.1488 15.66304666  5168
STARLINK-37861          
1 69552U 26135G   26192.16668980 -.02542791  00000+0 -33065-1 0  9997
2 69552  97.2838 220.5219 0001400  58.6055 355.3520 15.62401021  5168
STARLINK-37859          
1 69553U 26135H   26192.16668980 -.00911309  00000+0 -11458-1 0  9993
2 69553  97.2846 220.5299 0001707  73.6514 359.0578 15.62090926  5165
STARLINK-37860          
1 69554U 26135J   26192.16668980 -.02627970  00000+0 -27325-1 0  9994
2 69554  97.2845 220.5525 0001699  59.6911  65.3511 15.68095570  5162
STARLINK-37858          
1 69555U 26135K   26192.16668980 -.00817793  00000+0 -91176-2 0  9993
2 69555  97.2844 220.5442 0001166  71.9767  35.3809 15.65279650  5162
STARLINK-37927          
1 69556U 26135L   26192.16668980 -.02534449  00000+0 -35583-1 0  9999
2 69556  97.2836 220.5193 0001448  50.7034   4.5775 15.60415193  5161
STARLINK-37929          
1 69557U 26135M   26192.16668980 -.02477810  00000+0 -42067-1 0  9993
2 69557  97.2839 220.4949 0001458  93.2259 254.2736 15.55294781  5168
STARLINK-37954          
1 69558U 26135N   26192.16668980 -.02464211  00000+0 -41555-1 0  9996
2 69558  97.2842 220.4975 0001380 112.0052 241.6083 15.55455046  5165
STARLINK-37958          
1 69559U 26135P   26190.35553351  .00052572  00000+0  27487-3 0  9990
2 69559  97.2842 218.6737 0001420 185.9739 174.1513 15.80710505  3761
STARLINK-37950          
1 69560U 26135Q   26192.16668980 -.02723601  00000+0 -32049-1 0  9998
2 69560  97.2845 220.5568 0001454  82.9881  55.1958 15.65199157  5165
STARLINK-37952          
1 69561U 26135R   26192.16668980 -.02566169  00000+0 -36531-1 0  9993
2 69561  97.2843 220.5322 0001278  50.2468  34.5987 15.60108370  5160
STARLINK-37935          
1 69562U 26135S   26192.16668980 -.02468578  00000+0 -43025-1 0  9995
2 69562  97.2846 220.5028 0001302 102.1144 264.4704 15.54570183  5162
STARLINK-37936          
1 69563U 26135T   26192.16668980 -.02395356  00000+0 -38667-1 0  9995
2 69563  97.2848 220.5326 0001312  76.6664 359.5229 15.56516286  5163
STARLINK-37932          
1 69564U 26135U   26192.16668980 -.01274885  00000+0 -13539-1 0  9999
2 69564  97.2846 220.5908 0001361  97.1811 115.8379 15.66805376  5165
STARLINK-37916          
1 69565U 26135V   26192.16668980 -.02526033  00000+0 -31725-1 0  9993
2 69565  97.2842 220.5673 0002008  65.0557  95.3596 15.63251678  5161
STARLINK-37909          
1 69566U 26135W   26192.16668980 -.02642551  00000+0 -22156-1 0  9996
2 69566  97.2838 220.6199 0001328  75.3662 215.3564 15.73235373  5160
STARLINK-37934          
1 69567U 26135X   26188.44312228  .00293381  00000+0  14681-2 0  9998
2 69567  97.2845 216.6838 0003261 125.2579 234.8995 15.81011723  3469
