OBJECT_NAME,OBJECT_ID,EPOCH,MEAN_MOTION,ECCENTRICITY,INCLINATION,RA_OF_ASC_NODE,ARG_OF_PERICENTER,MEAN_ANOMALY,EPHEMERIS_TYPE,CLASSIFICATION_TYPE,NORAD_CAT_ID,ELEMENT_SET_NO,REV_AT_EPOCH,BSTAR,MEAN_MOTION_DOT,MEAN_MOTION_DDOT
2026-134A,2026-134A,2026-07-10T14:11:24.412128,15.09436333,.0015715,97.7009,261.7871,186.0657,174.0384,0,U,69538,999,384,.20302E-3,.319E-4,0
2026-134B,2026-134B,2026-07-10T14:07:36.585696,15.09592955,.001579,97.6985,261.7828,188.4087,171.6879,0,U,69539,999,383,.19681E-3,.3104E-4,0
2026-134C,2026-134C,2026-07-10T14:06:50.523264,15.09625263,.0015204,97.6990,261.7853,189.5408,170.5535,0,U,69540,999,383,.19848E-3,.3134E-4,0
2026-134D,2026-134D,2026-07-11T01:13:33.659328,15.09685314,.0016303,97.7028,262.2651,187.6800,172.4181,0,U,69541,999,390,.17481E-3,.2757E-4,0
2026-134E,2026-134E,2026-07-11T01:13:01.151328,15.09707529,.0016033,97.7046,262.2717,188.4106,171.6856,0,U,69542,999,390,.18571E-3,.2935E-4,0
2026-134F,2026-134F,2026-07-11T01:11:53.322144,15.09752911,.00153,97.7000,262.2575,190.0079,170.0848,0,U,69543,999,390,.18255E-3,.2887E-4,0
2026-134G,2026-134G,2026-07-11T04:20:41.056800,15.09837886,.0015796,97.7044,262.4069,190.4511,169.6391,0,U,69544,999,392,.16339E-3,.2583E-4,0
2026-134H,2026-134H,2026-07-11T01:08:11.102208,15.09904401,.0015624,97.7029,262.2705,192.3067,167.7782,0,U,69545,999,389,.18109E-3,.2876E-4,0
STARLINK-37880,2026-135A,2026-07-11T04:00:01.998720,15.51584885,.0001738,97.2846,220.4240,57.5355,132.1013,0,U,69546,999,516,-.62847E-1,-.3258069E-1,0
STARLINK-37881,2026-135B,2026-07-11T04:00:01.998720,15.61245091,.0000982,97.2846,220.4990,90.2197,270.4689,0,U,69547,999,516,-.32221E-1,-.2390094E-1,0
STARLINK-37265,2026-135C,2026-07-11T04:00:01.998720,15.70194609,.0001771,97.2843,220.5368,68.9378,30.6166,0,U,69548,999,516,-.25454E-1,-.2665105E-1,0
STARLINK-37871,2026-135D,2026-07-11T04:00:01.998720,15.59137149,.0001111,97.2842,220.4896,107.6446,239.5634,0,U,69549,999,516,-.38049E-1,-.2573762E-1,0
STARLINK-37865,2026-135E,2026-07-11T04:00:01.998720,15.60372734,.0001153,97.2840,220.4984,85.6717,283.4418,0,U,69550,999,516,-.36666E-1,-.2596929E-1,0
STARLINK-37862,2026-135F,2026-07-11T04:00:01.998720,15.66304666,.0001454,97.2841,220.5288,47.4655,29.1488,0,U,69551,999,516,-.25188E-1,-.2248869E-1,0
STARLINK-37861,2026-135G,2026-07-11T04:00:01.998720,15.62401021,.00014,97.2838,220.5219,58.6055,355.3520,0,U,69552,999,516,-.33065E-1,-.2542791E-1,0
STARLINK-37859,2026-135H,2026-07-11T04:00:01.998720,15.62090926,.0001707,97.2846,220.5299,73.6514,359.0578,0,U,69553,999,516,-.11458E-1,-.911309E-2,0
STARLINK-37860,2026-135J,2026-07-11T04:00:01.998720,15.68095570,.0001699,97.2845,220.5525,59.6911,65.3511,0,U,69554,999,516,-.27325E-1,-.262797E-1,0
STARLINK-37858,2026-135K,2026-07-11T04:00:01.998720,15.65279650,.0001166,97.2844,220.5442,71.9767,35.3809,0,U,69555,999,516,-.91176E-2,-.817793E-2,0
STARLINK-37927,2026-135L,2026-07-11T04:00:01.998720,15.60415193,.0001448,97.2836,220.5193,50.7034,4.5775,0,U,69556,999,516,-.35583E-1,-.2534449E-1,0
STARLINK-37929,2026-135M,2026-07-11T04:00:01.998720,15.55294781,.0001458,97.2839,220.4949,93.2259,254.2736,0,U,69557,999,516,-.42067E-1,-.247781E-1,0
STARLINK-37954,2026-135N,2026-07-11T04:00:01.998720,15.55455046,.000138,97.2842,220.4975,112.0052,241.6083,0,U,69558,999,516,-.41555E-1,-.2464211E-1,0
STARLINK-37958,2026-135P,2026-07-09T08:31:58.095264,15.80710505,.00014208,97.2842,218.6737,185.9739,174.1513,0,U,69559,999,376,.27486559E-3,.52572E-3,0
STARLINK-37950,2026-135Q,2026-07-11T04:00:01.998720,15.65199157,.0001454,97.2845,220.5568,82.9881,55.1958,0,U,69560,999,516,-.32049E-1,-.2723601E-1,0
STARLINK-37952,2026-135R,2026-07-11T04:00:01.998720,15.60108370,.0001278,97.2843,220.5322,50.2468,34.5987,0,U,69561,999,516,-.36531E-1,-.2566169E-1,0
STARLINK-37935,2026-135S,2026-07-11T04:00:01.998720,15.54570183,.0001302,97.2846,220.5028,102.1144,264.4704,0,U,69562,999,516,-.43025E-1,-.2468578E-1,0
STARLINK-37936,2026-135T,2026-07-11T04:00:01.998720,15.56516286,.0001312,97.2848,220.5326,76.6664,359.5229,0,U,69563,999,516,-.38667E-1,-.2395356E-1,0
STARLINK-37932,2026-135U,2026-07-11T04:00:01.998720,15.66805376,.0001361,97.2846,220.5908,97.1811,115.8379,0,U,69564,999,516,-.13539E-1,-.1274885E-1,0
STARLINK-37916,2026-135V,2026-07-11T04:00:01.998720,15.63251678,.0002008,97.2842,220.5673,65.0557,95.3596,0,U,69565,999,516,-.31725E-1,-.2526033E-1,0
STARLINK-37909,2026-135W,2026-07-11T04:00:01.998720,15.73235373,.0001328,97.2838,220.6199,75.3662,215.3564,0,U,69566,999,516,-.22156E-1,-.2642551E-1,0
STARLINK-37934,2026-135X,2026-07-07T10:38:05.764992,15.81011723,.00032614,97.2845,216.6838,125.2579,234.8995,0,U,69567,999,346,.14681327E-2,.293381E-2,0
